[{"OBJECT_NAME":"STARLINK-36228","OBJECT_ID":"2025-298X","EPOCH":"2026-03-09T22:44:16.822752","MEAN_MOTION":14.99133349,"ECCENTRICITY":0.00029437,"INCLINATION":70.0014,"RA_OF_ASC_NODE":13.8926,"ARG_OF_PERICENTER":274.4183,"MEAN_ANOMALY":85.664,"EPHEMERIS_TYPE":0,"CLASSIFICATION_TYPE":"U","NORAD_CAT_ID":67096,"ELEMENT_SET_NO":999,"REV_AT_EPOCH":1325,"BSTAR":0.00053016163,"MEAN_MOTION_DOT":6.371e-5,"MEAN_MOTION_DDOT":0},{"OBJECT_NAME":"CZ-4B DEB","OBJECT_ID":"1999-057CV","EPOCH":"2026-03-09T19:57:46.813248","MEAN_MOTION":14.85904834,"ECCENTRICITY":0.00580026,"INCLINATION":98.3828,"RA_OF_ASC_NODE":180.8293,"ARG_OF_PERICENTER":13.7764,"MEAN_ANOMALY":105.3903,"EPHEMERIS_TYPE":0,"CLASSIFICATION_TYPE":"U","NORAD_CAT_ID":26207,"ELEMENT_SET_NO":999,"REV_AT_EPOCH":36891,"BSTAR":0.0014962351,"MEAN_MOTION_DOT":0.00013405,"MEAN_MOTION_DDOT":0}]
